[{"OBJECT_NAME":"STARLINK-34415","OBJECT_ID":"2025-137AA","EPOCH":"2026-03-09T22:34:33.750624","MEAN_MOTION":15.30196215,"ECCENTRICITY":8.355e-5,"INCLINATION":53.1601,"RA_OF_ASC_NODE":334.0458,"ARG_OF_PERICENTER":79.8763,"MEAN_ANOMALY":280.2332,"EPHEMERIS_TYPE":0,"CLASSIFICATION_TYPE":"U","NORAD_CAT_ID":64618,"ELEMENT_SET_NO":999,"REV_AT_EPOCH":4077,"BSTAR":0.0010909069,"MEAN_MOTION_DOT":0.00032086,"MEAN_MOTION_DDOT":0},{"OBJECT_NAME":"ATLAS 28E DEB","OBJECT_ID":"1990-031H","EPOCH":"2026-03-09T12:57:08.289792","MEAN_MOTION":15.28884159,"ECCENTRICITY":0.00278203,"INCLINATION":89.4108,"RA_OF_ASC_NODE":276.7439,"ARG_OF_PERICENTER":214.1843,"MEAN_ANOMALY":145.7617,"EPHEMERIS_TYPE":0,"CLASSIFICATION_TYPE":"U","NORAD_CAT_ID":20576,"ELEMENT_SET_NO":999,"REV_AT_EPOCH":37205,"BSTAR":0.00056600809,"MEAN_MOTION_DOT":0.00016095,"MEAN_MOTION_DDOT":0}]
